*******************************************************************************
Ephemeris / WWW_USER Tue Mar 27 21:51:45 2018 Pasadena, USA      / Horizons    
*******************************************************************************
Target body name: 1 Ceres                         {source: JPL#34}
Center body name: Solar System Barycenter (0)     {source: DE431}
Center-site name: BODY CENTER
*******************************************************************************
Start time      : A.D. 2018-Feb-08 00:00:00.0000 TDB
Stop  time      : A.D. 2019-Feb-08 00:00:00.0000 TDB
Step-size       : 7200 minutes
*******************************************************************************
Center geodetic : 0.00000000,0.00000000,0.0000000 {E-lon(deg),Lat(deg),Alt(km)}
Center cylindric: 0.00000000,0.00000000,0.0000000 {E-lon(deg),Dxy(km),Dz(km)}
Center radii    : (undefined)                                                  
Small perturbers: Yes                             {source: SB431-N16}
Output units    : AU-D                                                         
Output type     : GEOMETRIC cartesian states
Output format   : 2 (position and velocity)
Reference frame : ICRF/J2000.0                                                 
Coordinate systm: Ecliptic and Mean Equinox of Reference Epoch                 
*******************************************************************************
Initial IAU76/J2000 heliocentric ecliptic osculating elements (au, days, deg.):
  EPOCH=  2449731.5 ! 1995-Jan-14.00 (TDB)         Residual RMS= .3289         
   EC= .07610292126891821  QR= 2.556624726195814   TP= 2449823.0922807939      
   OM= 80.65851514365535   W=  71.44921526124109   IN= 10.60069567603618       
  Equivalent ICRF heliocentric equatorial cartesian coordinates (au, au/d):
   X=-1.595314070299652E+00  Y= 1.679592434318194E+00  Z= 1.115015709161572E+00
  VX=-8.276811304306792E-03 VY=-7.202858709771250E-03 VZ=-1.698003095770422E-03
Asteroid physical parameters (km, seconds, rotational period in hours):        
   GM= 62.6284             RAD= 469.7              ROTPER= 9.07417             
   H= 3.34                 G= .120                 B-V= .713                   
                           ALBEDO= .090            STYP= C                     
*******************************************************************************
JDTDB
   X     Y     Z
   VX    VY    VZ
*******************************************************************************
$$SOE
2458342.500000000 = A.D. 2018-Aug-12 00:00:00.0000 TDB 
  -2.533623004410105E+00  1.287578738717620E-02  4.672554722298136E-01
  -4.344984106373605E-04 -1.106434795281452E-02 -2.694975539037353E-04
2458347.500000000 = A.D. 2018-Aug-17 00:00:00.0000 TDB 
  -2.535247870117106E+00 -4.244340699145042E-02  4.658070920310279E-01
  -2.155000832703722E-04 -1.106253384682632E-02 -3.098198492782907E-04
2458352.500000000 = A.D. 2018-Aug-22 00:00:00.0000 TDB 
  -2.535778621287709E+00 -9.774160959245970E-02  4.641576372515313E-01
   3.128654594082689E-06 -1.105595495416708E-02 -3.499240461980746E-04
2458357.500000000 = A.D. 2018-Aug-27 00:00:00.0000 TDB 
  -2.535217386147296E+00 -1.529950548152652E-01  4.623082482229915E-01
   2.212758876747677E-04 -1.104463513515594E-02 -3.897902615675093E-04
2458362.500000000 = A.D. 2018-Sep-01 00:00:00.0000 TDB 
  -2.533566849474095E+00 -2.081801042145041E-01  4.602601638885421E-01
   4.388309271110878E-04 -1.102860138052723E-02 -4.293989366876336E-04
2458367.500000000 = A.D. 2018-Sep-06 00:00:00.0000 TDB 
  -2.530830246215116E+00 -2.632732619835063E-01  4.580147201395567E-01
   6.556844106318834E-04 -1.100788374339088E-02 -4.687308536230795E-04
2458372.500000000 = A.D. 2018-Sep-11 00:00:00.0000 TDB 
  -2.527011354611057E+00 -3.182511900889362E-01  4.555733480726594E-01
   8.717283986789491E-04 -1.098251526778879E-02 -5.077671507139945E-04
2458377.500000000 = A.D. 2018-Sep-16 00:00:00.0000 TDB 
  -2.522114488851929E+00 -3.730907230399162E-01  4.529375721716263E-01
   1.086856465958572E-03 -1.095253191390816E-02 -5.464893370932308E-04
2458382.500000000 = A.D. 2018-Sep-21 00:00:00.0000 TDB 
  -2.516144491286231E+00 -4.277688822744274E-01  4.501090084192085E-01
   1.300963788551851E-03 -1.091797247975371E-02 -5.848793062215132E-04
2458387.500000000 = A.D. 2018-Sep-26 00:00:00.0000 TDB 
  -2.509106724204356E+00 -4.822628901453737E-01  4.470893623433588E-01
   1.513947227204008E-03 -1.087887851941150E-02 -6.229193486207723E-04
2458392.500000000 = A.D. 2018-Oct-01 00:00:00.0000 TDB 
  -2.501007061214588E+00 -5.365501834906835E-01  4.438804270015487E-01
   1.725705406964784E-03 -1.083529425852388E-02 -6.605921639067576E-04
2458397.500000000 = A.D. 2018-Oct-06 00:00:00.0000 TDB 
  -2.491851878230857E+00 -5.906084267752147E-01  4.404840809068019E-01
   1.936138792749073E-03 -1.078726650761640E-02 -6.978808720468734E-04
2458402.500000000 = A.D. 2018-Oct-11 00:00:00.0000 TDB 
  -2.481648044094031E+00 -6.444155247945850E-01  4.369022858996698E-01
   2.145149760290786E-03 -1.073484457355686E-02 -7.347690237057268E-04
2458407.500000000 = A.D. 2018-Oct-16 00:00:00.0000 TDB 
  -2.470402910850469E+00 -6.979496349317046E-01  4.331370849709168E-01
   2.352642662284955E-03 -1.067808016918339E-02 -7.712406096141844E-04
2458412.500000000 = A.D. 2018-Oct-21 00:00:00.0000 TDB 
  -2.458124303711740E+00 -7.511891789570122E-01  4.291906000397623E-01
   2.558523889801788E-03 -1.061702732117692E-02 -8.072800689853288E-04
2458417.500000000 = A.D. 2018-Oct-26 00:00:00.0000 TDB 
  -2.444820510718797E+00 -8.041128543641154E-01  4.250650296923211E-01
   2.762701929112520E-03 -1.055174227640149E-02 -8.428722970265351E-04
2458422.500000000 = A.D. 2018-Oct-31 00:00:00.0000 TDB 
  -2.430500272133306E+00 -8.566996452338865E-01  4.207626468846712E-01
   2.965087414004513E-03 -1.048228340699101E-02 -8.780026515805962E-04
2458427.500000000 = A.D. 2018-Nov-05 00:00:00.0000 TDB 
  -2.415172769578629E+00 -9.089288326214593E-01  4.162857966148555E-01
   3.165593173610625E-03 -1.040871111446958E-02 -9.126569589124567E-04
2458432.500000000 = A.D. 2018-Nov-10 00:00:00.0000 TDB 
  -2.398847614952852E+00 -9.607800044619532E-01  4.116368935680679E-01
   3.364134275762382E-03 -1.033108773316299E-02 -9.468215186504893E-04
2458437.500000000 = A.D. 2018-Nov-15 00:00:00.0000 TDB 
  -2.381534839136195E+00 -1.012233064991974E+00  4.068184197392254E-01
   3.560628065887344E-03 -1.024947743313426E-02 -9.804831078919492E-04
2458442.500000000 = A.D. 2018-Nov-20 00:00:00.0000 TDB 
  -2.363244880514986E+00 -1.063268243685038E+00  4.018329220370753E-01
   3.754994201500449E-03 -1.016394612284933E-02 -1.013628984488457E-03
2458447.500000000 = A.D. 2018-Nov-25 00:00:00.0000 TDB 
  -2.343988573343991E+00 -1.113866103700028E+00  3.966830098738643E-01
   3.947154682393848E-03 -1.007456135175423E-02 -1.046246889540225E-03
2458452.500000000 = A.D. 2018-Nov-30 00:00:00.0000 TDB 
  -2.323777135968188E+00 -1.164007549842706E+00  3.913713527444246E-01
   4.137033876700505E-03 -9.981392212957024E-03 -1.078325049145139E-03
2458457.500000000 = A.D. 2018-Dec-05 00:00:00.0000 TDB 
  -2.302622158924213E+00 -1.213673836041527E+00  3.859006777982890E-01
   4.324558542966437E-03 -9.884509246337537E-03 -1.109852175438621E-03
2458462.500000000 = A.D. 2018-Dec-10 00:00:00.0000 TDB 
  -2.280535592941706E+00 -1.262846572341007E+00  3.802737674084486E-01
   4.509657848067629E-03 -9.783984342529544E-03 -1.140817466882318E-03
2458467.500000000 = A.D. 2018-Dec-15 00:00:00.0000 TDB 
  -2.257529736866064E+00 -1.311507731417703E+00  3.744934567407157E-01
   4.692263380702522E-03 -9.679890647972903E-03 -1.171210607727469E-03
2458472.500000000 = A.D. 2018-Dec-20 00:00:00.0000 TDB 
  -2.233617225524613E+00 -1.359639654623811E+00  3.685626313277964E-01
   4.872309160606559E-03 -9.572302470875564E-03 -1.201021766683234E-03
2458477.500000000 = A.D. 2018-Dec-25 00:00:00.0000 TDB 
  -2.208811017556390E+00 -1.407225057562570E+00  3.624842246517561E-01
   5.049731643970536E-03 -9.461295187983033E-03 -1.230241594913307E-03
2458482.500000000 = A.D. 2018-Dec-30 00:00:00.0000 TDB 
  -2.183124383223470E+00 -1.454247035199880E+00  3.562612157379523E-01
   5.224469725451870E-03 -9.346945152341137E-03 -1.258861223464889E-03
2458487.500000000 = A.D. 2019-Jan-04 00:00:00.0000 TDB 
  -2.156570892220346E+00 -1.500689066517959E+00  3.498966267631365E-01
   5.396464736954377E-03 -9.229329602421276E-03 -1.286872260172889E-03
2458492.500000000 = A.D. 2019-Jan-09 00:00:00.0000 TDB 
  -2.129164401497497E+00 -1.546535018718850E+00  3.433935206803757E-01
   5.565660443159785E-03 -9.108526572986598E-03 -1.314266786023151E-03
2458497.500000000 = A.D. 2019-Jan-14 00:00:00.0000 TDB 
  -2.100919043115621E+00 -1.591769150987143E+00  3.367549988635898E-01
   5.732003033713531E-03 -8.984614807935202E-03 -1.341037350935752E-03
2458502.500000000 = A.D. 2019-Jan-19 00:00:00.0000 TDB 
  -2.071849212147391E+00 -1.636376117821971E+00  3.299841987746620E-01
   5.895441112040231E-03 -8.857673675166617E-03 -1.367176968955823E-03
2458507.500000000 = A.D. 2019-Jan-24 00:00:00.0000 TDB 
  -2.041969554643343E+00 -1.680340971948387E+00  3.230842916560177E-01
   6.055925680897706E-03 -8.727783083462113E-03 -1.392679112881729E-03
2458512.500000000 = A.D. 2019-Jan-29 00:00:00.0000 TDB 
  -2.011294955677796E+00 -1.723649166818134E+00  3.160584802513622E-01
   6.213410124848792E-03 -8.595023401362735E-03 -1.417537708383287E-03
2458517.500000000 = A.D. 2019-Feb-03 00:00:00.0000 TDB 
  -1.979840527489710E+00 -1.766286558709802E+00  3.089099965569844E-01
   6.367850189838584E-03 -8.459475378044182E-03 -1.441747127666565E-03
2458522.500000000 = A.D. 2019-Feb-08 00:00:00.0000 TDB 
  -1.947621597732501E+00 -1.808239408438296E+00  3.016420996057504E-01
   6.519203960071986E-03 -8.321220066157759E-03 -1.465302182743358E-03
